NORAD_CAT_ID,OBJECT_NAME,OBJECT_TYPE,EPOCH,MEAN_MOTION,ECCENTRICITY,INCLINATION,RA_OF_ASC_NODE,ARG_OF_PERICENTER,MEAN_ANOMALY,BSTAR,MEAN_MOTION_DOT,MEAN_MOTION_DDOT,TLE_LINE0,TLE_LINE1,TLE_LINE2,SEMIMAJOR_AXIS,PERIOD,APOGEE,PERIGEE,DECAYED
52129.0,STARLINK-3661,PAYLOAD,2022-10-18 02:55:34,15.08836749,0.0001336,53.2169,229.2539,53.7218,306.3898,0.00016522,2.342e-05,0.0,0 STARLINK-3661,1 52129U 22029AT  22291.12193111  .00002342  00000-0  16522-3 0  9999,2 52129  53.2169 229.2539 0001336  53.7218 306.3898 15.08836749 33956,6917.89,95.438,540.68,538.831,0.0
52129.0,STARLINK-3661,PAYLOAD,2022-10-18 12:27:55,15.08822216,0.0001489,53.218,227.4713,56.8407,303.2728,9.3815e-05,1.205e-05,0.0,0 STARLINK-3661,1 52129U 22029AT  22291.51938702  .00001205  00000-0  93815-4 0  9993,2 52129  53.2180 227.4713 0001489  56.8407 303.2728 15.08822216 34016,6917.935,95.439,540.83,538.77,0.0
52129.0,STARLINK-3661,PAYLOAD,2022-10-19 04:21:46,15.08831092,0.0001597,53.2176,224.4993,66.8735,293.2425,5.092899999999999e-05,5.22e-06,0.0,0 STARLINK-3661,1 52129U 22029AT  22292.18179058  .00000522  00000-0  50929-4 0  9998,2 52129  53.2176 224.4993 0001597  66.8735 293.2425 15.08831092 34118,6917.908,95.438,540.877,538.668,0.0
52129.0,STARLINK-3661,PAYLOAD,2022-10-20 04:12:32,15.08899122,0.0001164,53.2176,220.0392,61.3378,298.7731,-0.00076182,-0.00012411,0.0,0 STARLINK-3661,1 52129U 22029AT  22293.17537246 -.00012411  00000-0 -76182-3 0  9995,2 52129  53.2176 220.0392 0001164  61.3378 298.7731 15.08899122 34260,6917.7,95.434,540.37,538.759,0.0
52129.0,STARLINK-3661,PAYLOAD,2022-10-20 12:09:28,15.08848133,0.0001481,53.2171,218.5518,64.2871,295.8274,6.5224e-05,7.4999999999999985e-06,0.0,0 STARLINK-3661,1 52129U 22029AT  22293.50657879  .00000750  00000-0  65224-4 0  9994,2 52129  53.2171 218.5518 0001481  64.2871 295.8274 15.08848133 34311,6917.856,95.437,540.745,538.696,0.0
52129.0,STARLINK-3661,PAYLOAD,2022-10-21 04:03:20,15.08846353,0.0001579,53.2172,215.5768,45.3789,314.7331,-1.2610999999999997e-05,-4.89e-06,0.0,0 STARLINK-3661,1 52129U 22029AT  22294.16898424 -.00000489  00000-0 -12611-4 0  9993,2 52129  53.2172 215.5768 0001579  45.3789 314.7331 15.08846353 34410,6917.861,95.437,540.818,538.634,0.0
52129.0,STARLINK-3661,PAYLOAD,2022-10-21 12:00:16,15.08839174,0.0001675999999999,53.2173,214.0903,60.5474,299.5685,5.4264e-05,5.76e-06,0.0,0 STARLINK-3661,1 52129U 22029AT  22294.50018713  .00000576  00000-0  54264-4 0  9991,2 52129  53.2173 214.0903 0001676  60.5474 299.5685 15.08839174 34464,6917.8830000000025,95.438,540.9069999999998,538.5880000000002,0.0
52129.0,STARLINK-3661,PAYLOAD,2022-10-22 03:54:07,15.08845308,0.0001599,53.217,211.1161,63.2294,296.8862,7.7529e-05,9.46e-06,0.0,0 STARLINK-3661,1 52129U 22029AT  22295.16258144  .00000946  00000-0  77529-4 0  9998,2 52129  53.2170 211.1161 0001599  63.2294 296.8862 15.08845308 34563,6917.864000000001,95.437,540.835,538.623,0.0
52129.0,STARLINK-3661,PAYLOAD,2022-10-22 18:12:35,15.08828021,0.0001564999999999,53.2169,208.4397,66.1321,293.9835,0.00025092,3.706e-05,0.0,0 STARLINK-3661,1 52129U 22029AT  22295.75874526  .00003706  00000-0  25092-3 0  9995,2 52129  53.2169 208.4397 0001565  66.1321 293.9835 15.08828021 34658,6917.917,95.438,540.865,538.6990000000002,0.0
52129.0,STARLINK-3661,PAYLOAD,2022-10-23 03:44:52,15.08856852,0.0001520999999999,53.2165,206.6563,61.2563,298.8581,0.00012765,1.745e-05,0.0,0 STARLINK-3661,1 52129U 22029AT  22296.15616872  .00001745  00000-0  12765-3 0  9992,2 52129  53.2165 206.6563 0001521  61.2563 298.8581 15.08856852 34717,6917.829000000002,95.436,540.746,538.6419999999998,0.0
52129.0,STARLINK-3661,PAYLOAD,2022-10-23 11:41:48,15.08852903,0.000152,53.2162,205.1693,61.1674,298.947,8.6015e-05,1.082e-05,0.0,0 STARLINK-3661,1 52129U 22029AT  22296.48736956  .00001082  00000-0  86015-4 0  9998,2 52129  53.2162 205.1693 0001520  61.1674 298.9470 15.08852903 34769,6917.840999999999,95.437,540.757,538.654,0.0
52129.0,STARLINK-3661,PAYLOAD,2022-10-24 00:24:53,15.08850113,0.0001518,53.216,202.7904,60.5968,299.5176,0.00010111,1.322e-05,0.0,0 STARLINK-3661,1 52129U 22029AT  22297.01728743  .00001322  00000-0  10111-3 0  9993,2 52129  53.2160 202.7904 0001518  60.5968 299.5176 15.08850113 34841,6917.849,95.437,540.765,538.664,0.0
52129.0,STARLINK-3661,PAYLOAD,2022-10-24 17:54:11,15.08822672,0.000162,53.216,199.5186,60.1098,300.0055,-0.00023833,-4.077e-05,0.0,0 STARLINK-3661,1 52129U 22029AT  22297.74596068 -.00004077  00000-0 -23833-3 0  9993,2 52129  53.2160 199.5186 0001620  60.1098 300.0055 15.08822672 34955,6917.933000000001,95.439,540.919,538.678,0.0
52129.0,STARLINK-3661,PAYLOAD,2022-10-25 01:51:06,15.0883046,0.0001584,53.2165,198.0322,57.0839,303.0305,-0.00015386,-2.735e-05,0.0,0 STARLINK-3661,1 52129U 22029AT  22298.07715573 -.00002735  00000-0 -15386-3 0  9997,2 52129  53.2165 198.0322 0001584  57.0839 303.0305 15.08830460 35005,6917.91,95.438,540.87,538.679,0.0
52129.0,STARLINK-3661,PAYLOAD,2022-10-25 03:26:29,15.08831249,0.0001585999999999,53.2167,197.7353,55.4693,304.6448,-0.00014416,-2.581e-05,0.0,0 STARLINK-3661,1 52129U 22029AT  22298.14339509 -.00002581  00000-0 -14416-3 0  9998,2 52129  53.2167 197.7353 0001586  55.4693 304.6448 15.08831249 35011,6917.906999999997,95.438,540.869,538.675,0.0
52129.0,STARLINK-3661,PAYLOAD,2022-10-26 03:17:16,15.0882492,0.0001708,53.2166,193.2745,54.4141,305.701,-6.892399999999999e-05,-1.384e-05,0.0,0 STARLINK-3661,1 52129U 22029AT  22299.13700174 -.00001384  00000-0 -68924-4 0  9992,2 52129  53.2166 193.2745 0001708  54.4141 305.7010 15.08824920 35160,6917.926,95.439,540.9730000000002,538.61,0.0
52129.0,STARLINK-3661,PAYLOAD,2022-10-26 09:38:49,15.08829542,0.0001644,53.2167,192.0863,58.3155,301.7997,-1.8647e-05,-5.85e-06,0.0,0 STARLINK-3661,1 52129U 22029AT  22299.40195994 -.00000585  00000-0 -18647-4 0  9999,2 52129  53.2167 192.0863 0001644  58.3155 301.7997 15.08829542 35206,6917.9119999999975,95.438,540.915,538.64,0.0
52129.0,STARLINK-3661,PAYLOAD,2022-10-26 19:11:07,15.0883792,0.0001506,53.2165,190.3005,52.7683,307.3446,0.00025915,3.839e-05,0.0,0 STARLINK-3661,1 52129U 22029AT  22299.79939601  .00003839  00000-0  25915-3 0  9990,2 52129  53.2165 190.3005 0001506  52.7683 307.3446 15.08837920 35260,6917.887,95.438,540.794,538.71,0.0
52129.0,STARLINK-3661,PAYLOAD,2022-10-27 01:32:40,15.08852765,0.0001679,53.2156,189.1123,51.4791,308.6352,0.00051262,7.883e-05,0.0,0 STARLINK-3661,1 52129U 22029AT  22300.06435765  .00007883  00000-0  51262-3 0  9992,2 52129  53.2156 189.1123 0001679  51.4791 308.6352 15.08852765 35303,6917.840999999999,95.437,540.868,538.545,0.0
52129.0,STARLINK-3661,PAYLOAD,2022-10-27 20:37:17,15.08857377,0.0001695,53.2153,185.544,52.7028,307.4119,0.00031206,4.684e-05,0.0,0 STARLINK-3661,1 52129U 22029AT  22300.85923127  .00004684  00000-0  31206-3 0  9995,2 52129  53.2153 185.5440 0001695  52.7028 307.4119 15.08857377 35422,6917.8269999999975,95.436,540.865,538.52,0.0
52129.0,STARLINK-3661,PAYLOAD,2022-10-28 01:23:26,15.08870985,0.0001713,53.215,184.6521,53.6215,306.4935,0.00060867,9.42e-05,0.0,0 STARLINK-3661,1 52129U 22029AT  22301.05794560  .00009420  00000-0  60867-3 0  9993,2 52129  53.2150 184.6521 0001713  53.6215 306.4935 15.08870985 35456,6917.786,95.436,540.836,538.466,0.0
52129.0,STARLINK-3661,PAYLOAD,2022-10-28 09:20:22,15.08861057,0.0001885999999999,53.2144,183.1657,58.9339,301.1838,0.00033222,5.006e-05,0.0,0 STARLINK-3661,1 52129U 22029AT  22301.38914551  .00005006  00000-0  33222-3 0  9994,2 52129  53.2144 183.1657 0001886  58.9339 301.1838 15.08861057 35509,6917.816,95.436,540.986,538.376,0.0
52129.0,STARLINK-3661,PAYLOAD,2022-10-29 02:49:36,15.08851313,0.0001738,53.2145,179.8938,51.801,308.3139,4.5234e-05,4.32e-06,0.0,0 STARLINK-3661,1 52129U 22029AT  22302.11778054  .00000432  00000-0  45234-4 0  9997,2 52129  53.2145 179.8938 0001738  51.8010 308.3139 15.08851313 35617,6917.846,95.437,540.913,538.508,0.0
52129.0,STARLINK-3661,PAYLOAD,2022-10-29 09:11:08,15.08843906,0.0001838,53.2151,178.7045,50.1735,309.9418,-8.1315e-05,-1.582e-05,0.0,0 STARLINK-3661,1 52129U 22029AT  22302.38274218 -.00001582  00000-0 -81315-4 0  9998,2 52129  53.2151 178.7045 0001838  50.1735 309.9418 15.08843906 35658,6917.868,95.437,541.005,538.462,0.0
52129.0,STARLINK-3661,PAYLOAD,2022-10-29 20:18:50,15.08844358,0.0001629999999999,53.2155,176.623,58.4742,301.6409,-0.00014881,-2.656e-05,0.0,0 STARLINK-3661,1 52129U 22029AT  22302.84642340 -.00002656  00000-0 -14881-3 0  9990,2 52129  53.2155 176.6230 0001630  58.4742 301.6409 15.08844358 35723,6917.8669999999975,95.437,540.86,538.604,0.0
52129.0,STARLINK-3661,PAYLOAD,2022-10-30 01:05:00,15.08850543,0.0001785,53.2167,175.7308,54.0481,306.0677,-7.0726e-05,-1.414e-05,0.0,0 STARLINK-3661,1 52129U 22029AT  22303.04514421 -.00001414  00000-0 -70726-4 0  9993,2 52129  53.2167 175.7308 0001785  54.0481 306.0677 15.08850543 35757,6917.848000000001,95.437,540.948,538.4780000000002,0.0
52129.0,STARLINK-3661,PAYLOAD,2022-10-30 21:45:01,15.08841208,0.0001806,53.2166,171.8652,54.9636,305.1525,-8.963099999999999e-06,-4.31e-06,0.0,0 STARLINK-3661,1 52129U 22029AT  22303.90626552 -.00000431  00000-0 -89631-5 0  9991,2 52129  53.2166 171.8652 0001806  54.9636 305.1525 15.08841208 35884,6917.877,95.437,540.991,538.492,0.0
52129.0,STARLINK-3661,PAYLOAD,2022-10-31 08:52:43,15.08839425,0.0001788,53.2166,169.7836,57.2645,302.8520000000001,-2.9594e-05,-7.59e-06,0.0,0 STARLINK-3661,1 52129U 22029AT  22304.36994679 -.00000759  00000-0 -29594-4 0  9994,2 52129  53.2166 169.7836 0001788  57.2645 302.8520 15.08839425 35954,6917.882,95.438,540.984,538.51,0.0
52129.0,STARLINK-3661,PAYLOAD,2022-11-01 00:46:34,15.08838722,0.0001835,53.2166,166.8099,53.4338,306.6823,7.0673e-05,8.37e-06,0.0,0 STARLINK-3661,1 52129U 22029AT  22305.03234530  .00000837  00000-0  70673-4 0  9991,2 52129  53.2166 166.8099 0001835  53.4338 306.6823 15.08838722 36052,6917.884,95.438,541.019,538.48,0.0
